[{"OBJECT_NAME":"CUTE-1.7+APD II (CO-65)","OBJECT_ID":"2008-021C","EPOCH":"2026-03-09T21:54:04.726080","MEAN_MOTION":15.08376872,"ECCENTRICITY":0.00096053,"INCLINATION":97.8207,"RA_OF_ASC_NODE":48.3884,"ARG_OF_PERICENTER":18.7003,"MEAN_ANOMALY":341.4575,"EPHEMERIS_TYPE":0,"CLASSIFICATION_TYPE":"U","NORAD_CAT_ID":32785,"ELEMENT_SET_NO":999,"REV_AT_EPOCH":97022,"BSTAR":0.00047295391,"MEAN_MOTION_DOT":7.295e-5,"MEAN_MOTION_DDOT":0},{"OBJECT_NAME":"STARLINK-4724","OBJECT_ID":"2022-107C","EPOCH":"2026-03-09T16:12:09.707040","MEAN_MOTION":15.08844294,"ECCENTRICITY":0.00010108,"INCLINATION":53.2171,"RA_OF_ASC_NODE":229.0876,"ARG_OF_PERICENTER":70.0225,"MEAN_ANOMALY":290.0876,"EPHEMERIS_TYPE":0,"CLASSIFICATION_TYPE":"U","NORAD_CAT_ID":53702,"ELEMENT_SET_NO":999,"REV_AT_EPOCH":19509,"BSTAR":-2.4367372e-5,"MEAN_MOTION_DOT":-6.76e-6,"MEAN_MOTION_DDOT":0}]
